{
    "links": {
        "self": "http://www.neowsapp.com/rest/v1/neo/3694461?api_key=iIulBulltgU6a56xZRHN4H3l9WmuAYTsLGpBGhQ2"
    },
    "id": "3694461",
    "neo_reference_id": "3694461",
    "name": "(2014 UA57)",
    "designation": "2014 UA57",
    "nasa_jpl_url": "http://ssd.jpl.nasa.gov/sbdb.cgi?sstr=3694461",
    "absolute_magnitude_h": 25.9,
    "estimated_diameter": {
        "kilometers": {
            "estimated_diameter_min": 0.0175612318,
            "estimated_diameter_max": 0.0392681082
        },
        "meters": {
            "estimated_diameter_min": 17.561231848,
            "estimated_diameter_max": 39.2681081809
        },
        "miles": {
            "estimated_diameter_min": 0.0109120402,
            "estimated_diameter_max": 0.0244000636
        },
        "feet": {
            "estimated_diameter_min": 57.6155918963,
            "estimated_diameter_max": 128.8323800441
        }
    },
    "is_potentially_hazardous_asteroid": false,
    "close_approach_data": [
        {
            "close_approach_date": "2014-11-01",
            "close_approach_date_full": "2014-Nov-01 07:02",
            "epoch_date_close_approach": 1414825320000,
            "relative_velocity": {
                "kilometers_per_second": "7.0017258524",
                "kilometers_per_hour": "25206.2130687007",
                "miles_per_hour": "15662.1605592713"
            },
            "miss_distance": {
                "astronomical": "0.04298346",
                "lunar": "16.72056594",
                "kilometers": "6430234.0612302",
                "miles": "3995562.16896876"
            },
            "orbiting_body": "Earth"
        }
    ],
    "orbital_data": {
        "orbit_id": "3",
        "orbit_determination_date": "2017-04-06 08:37:55",
        "first_observation_date": "2014-10-24",
        "last_observation_date": "2014-10-26",
        "data_arc_in_days": 2,
        "observations_used": 19,
        "orbit_uncertainty": "8",
        "minimum_orbit_intersection": ".036225",
        "jupiter_tisserand_invariant": "3.477",
        "epoch_osculation": "2456955.5",
        "eccentricity": ".5361133464119389",
        "semi_major_axis": "2.18237669359059",
        "inclination": "1.599718978299302",
        "ascending_node_longitude": "323.0451335378776",
        "orbital_period": "1177.586991237964",
        "perihelion_distance": "1.012375421258316",
        "perihelion_argument": "90.15339751923787",
        "aphelion_distance": "3.352377965922863",
        "perihelion_time": "2456974.405654491652",
        "mean_anomaly": "354.2203542773178",
        "mean_motion": ".305709898868314",
        "equinox": "J2000",
        "orbit_class": {
            "orbit_class_type": "APO",
            "orbit_class_description": "Near-Earth asteroid orbits which cross the Earth’s orbit similar to that of 1862 Apollo",
            "orbit_class_range": "a (semi-major axis) > 1.0 AU; q (perihelion) < 1.017 AU"
        }
    },
    "is_sentry_object": false
}